STARLINK-32866          
1 62858U 25022E   26068.55763300  .00025346  00000+0  86531-3 0  9996
2 62858  53.1607 129.9608 0001504  64.0710 296.0446 15.30186452 61885
TEVEL2-7                
1 63238U 25052AE  26068.66113295  .00019244  00000+0  69668-3 0  9998
2 63238  97.4054 324.3041 0008105 124.6830 235.5175 15.28414096 54803
